APRIZESAT 2             
1 28366U 04025A   26190.27208912  .00000160  00000+0  62531-4 0  9992
2 28366  98.1034 355.0043 0105526 182.7174 177.3454 14.38045813154818
SAUDICOMSAT 1           
1 28369U 04025D   26190.28985237  .00000237  00000+0  65511-4 0  9994
2 28369  98.5774 201.0180 0031239 317.5542  42.3238 14.55490937167347
SAUDICOMSAT 2           
1 28370U 04025E   26190.27618814  .00000139  00000+0  47915-4 0  9998
2 28370  98.6641 203.1469 0055225 191.6361 168.3560 14.49992506163308
APRIZESAT 1             
1 28372U 04025G   26190.00484296  .00000174  00000+0  54707-4 0  9992
2 28372  98.6306 201.3241 0045814  88.9946 271.6497 14.51789639165073
NANOSAT-1               
1 28493U 04049B   26190.61233036  .00000669  00000+0  95293-4 0  9997
2 28493  98.2302 327.8253 0003359 203.2286 156.8773 14.80204087158763
SAUDICOMSAT 7           
1 31119U 07012C   26189.88392793  .00000367  00000+0  74757-4 0  9999
2 31119  98.3792 164.4612 0056726 127.6525 232.9844 14.66132281 25613
SAUDICOMSAT 6           
1 31121U 07012E   26190.73498992  .00000260  00000+0  59882-4 0  9990
2 31121  98.4112 158.6731 0070379 256.4100 102.9255 14.62581639 23486
SAUDICOMSAT 5           
1 31124U 07012H   26189.89513926  .00000480  00000+0  91185-4 0  9999
2 31124  98.3503 165.2151 0048553  58.2421 302.3501 14.68186610 26787
SAUDICOMSAT 3           
1 31125U 07012J   26190.77043797  .00000534  00000+0  95362-4 0  9994
2 31125  98.3158 166.6551 0038630 342.6618  17.3265 14.70744445 28147
SAUDICOMSAT 4           
1 31127U 07012L   26190.76938936  .00000267  00000+0  58823-4 0  9997
2 31127  98.3999 163.8022 0063168 186.6883 173.3482 14.64532489 24593
APRIZESAT 4             
1 35684U 09041D   26190.71160997  .00000441  00000+0  59423-4 0  9993
2 35684  98.1405 266.4805 0041979 247.7993 111.8764 14.83909146914701
APRIZESAT 3             
1 35686U 09041F   26189.36472022  .00001101  00000+0  99795-4 0  9999
2 35686  98.2085 343.6064 0061311 358.3556   1.7453 14.96295907919545
S-NET D                 
1 43186U 18014G   26190.62815984  .00003501  00000+0  18114-3 0  9993
2 43186  97.5339  95.2792 0006524 309.0111  51.0541 15.16885601462162
S-NET B                 
1 43187U 18014H   26190.64005213  .00003109  00000+0  16139-3 0  9991
2 43187  97.5346  95.2784 0007096 303.0334  57.0217 15.16855481462167
S-NET A                 
1 43188U 18014J   26190.62691339  .00003499  00000+0  18102-3 0  9994
2 43188  97.5356  95.4785 0006995 303.8075  56.2492 15.16893875462164
S-NET C                 
1 43189U 18014K   26190.64404596  .00002998  00000+0  15577-3 0  9990
2 43189  97.5371  95.5735 0008208 293.6580  66.3791 15.16846911460716
SALSAT                  
1 46495U 20068K   26190.25177099  .00005482  00000+0  19084-3 0  9995
2 46495  97.8858 194.6644 0008593 215.0810 144.9864 15.30117525318739
OOV-CUBE (TUBSAT-30)    
1 60240U 24128F   26190.61158507  .00001327  00000+0  11249-3 0  9992
2 60240  61.9941 147.3745 0041807 138.6969 221.7297 15.02859618109484
LPNTSAT-001 (IOD-1)     
1 68408U 26065A   26190.08483324  .00001746  00000+0  87384-4 0  9996
2 68408  97.3994  70.1296 0014688 290.2392  69.7263 15.18649595 15583
